STARLINK-1443
1 45660U 20035D   26061.25002314 -.00014332  00000+0 -55666-3 0  9998
2 45660  53.1347  99.2140 0001755  58.0446 335.3221 15.24874077  5825
STARLINK-2627
1 48687U 21044BB  26061.16668981  .01823869  00000+0  66908-1 0  9990
2 48687  53.1332  99.7975 0001048 103.9256 121.8608 15.24370283  5722
STARLINK-2250
1 48593U 21041AS  26061.16668981  .01828489  00000+0  67341-1 0  9998
2 48593  53.1327 174.8027 0001356  97.7560 290.9748 15.24230970  5771
STARLINK-2742
1 48688U 21044BC  26061.16668981  .00933718  00000+0  35599-1 0  9997
2 48688  53.1293  99.8545 0000987  95.8744  78.3411 15.23607610  5819
STARLINK-2033
1 47650U 21012AG  26061.09200913  .00199807  00000+0  80910-2 0  9990
2 47650  53.1280  84.7388 0004087 207.0208 153.0577 15.23352947279129
STARLINK-1335
1 45581U 20025BC  26061.25002314  .00912082  00000+0  35157-1 0  9997
2 45581  53.1272 109.5019 0001532  90.5975 289.9373 15.23302218  5739
